     2              NAVIGATION DATA                         RINEX VERSION / TYPE
CCRINEXN V1.6.0 UX  CDDIS               09-JUN-18 00:31     PGM / RUN BY / DATE 
IGS BROADCAST EPHEMERIS FILE                                COMMENT             
    0.6519D-08  0.2235D-07 -0.5960D-07 -0.1192D-06          ION ALPHA           
    0.8602D+05  0.9830D+05 -0.6554D+05 -0.5243D+06          ION BETA            
   -0.186264514923D-08-0.888178419700D-14    61440     2005 DELTA-UTC: A0,A1,T,W
    18                                                      LEAP SECONDS        
                                                            END OF HEADER       
28 18  6  8  8  0  0.0 0.721929594874D-03 0.318323145621D-11 0.000000000000D+00
    0.800000000000D+02-0.241875000000D+02 0.384373155526D-08-0.206007012982D+01
   -0.119395554066D-05 0.194820172619D-01 0.713020563126D-05 0.515367984581D+04
    0.460800000000D+06 0.325962901115D-06 0.139463732296D+01 0.279396772385D-06
    0.985621546431D+00 0.254062500000D+03-0.151947602242D+01-0.757674456508D-08
   -0.428232116434D-09 0.100000000000D+01 0.200400000000D+04 0.000000000000D+00
    0.400000000000D+01 0.000000000000D+00-0.111758708954D-07 0.800000000000D+02
    0.457260000000D+06 0.000000000000D+00 0.000000000000D+00 0.000000000000D+00
29 18  6  8  8  0  0.0 0.436172354966D-03-0.670752342558D-11 0.000000000000D+00
    0.840000000000D+02 0.331250000000D+01 0.372301212081D-08-0.201808211343D+01
    0.188127160072D-06 0.810612924397D-03 0.980682671070D-05 0.515368909073D+04
    0.460800000000D+06 0.558793544769D-07 0.241652288526D+01-0.428408384323D-07
    0.984142207096D+00 0.203156250000D+03 0.121007994050D+01-0.770424968266D-08
    0.149291926044D-09 0.100000000000D+01 0.200400000000D+04 0.000000000000D+00
    0.200000000000D+01 0.000000000000D+00-0.102445483208D-07 0.840000000000D+02
    0.453630000000D+06 0.000000000000D+00 0.000000000000D+00 0.000000000000D+00
30 18  6  8  8  0  0.0 0.649956054986D-04-0.443378667114D-11 0.000000000000D+00
    0.790000000000D+02 0.471250000000D+02 0.519593079673D-08 0.554267162972D+00
    0.235624611378D-05 0.347189616878D-02 0.445172190666D-05 0.515372849655D+04
    0.460800000000D+06-0.372529029846D-08 0.312035958556D+00-0.558793544769D-08
    0.944406917767D+00 0.279593750000D+03-0.306949515572D+01-0.853499848574D-08
   -0.115004790413D-09 0.100000000000D+01 0.200400000000D+04 0.000000000000D+00
    0.200000000000D+01 0.000000000000D+00 0.372529029846D-08 0.790000000000D+02
    0.453600000000D+06 0.000000000000D+00 0.000000000000D+00 0.000000000000D+00
31 18  6  8  8  0  0.0 0.116077717394D-03-0.261479726760D-11 0.000000000000D+00
    0.160000000000D+02 0.540937500000D+02 0.480198592001D-08 0.288941852457D+00
    0.270269811153D-05 0.874375645071D-02 0.546686351299D-05 0.515366948509D+04
    0.460800000000D+06 0.931322574615D-07 0.291177172264D+00-0.372529029846D-08
    0.963465486811D+00 0.272812500000D+03-0.127631688029D+00-0.836534841398D-08
   -0.332156697980D-10 0.100000000000D+01 0.200400000000D+04 0.000000000000D+00
    0.200000000000D+01 0.000000000000D+00-0.135041773319D-07 0.160000000000D+02
    0.453840000000D+06 0.000000000000D+00 0.000000000000D+00 0.000000000000D+00
32 18  6  8  8  0  0.0-0.497588887811D-03 0.613908923697D-11 0.000000000000D+00
    0.500000000000D+02 0.199062500000D+02 0.462876403873D-08-0.224461404905D+01
    0.110268592834D-05 0.219106650911D-02 0.109095126390D-04 0.515367585182D+04
    0.460800000000D+06 0.115483999252D-06-0.793653753904D+00-0.521540641785D-07
    0.957019492320D+00 0.166250000000D+03-0.254810671963D+01-0.799747557068D-08
    0.750031217689D-10 0.100000000000D+01 0.200400000000D+04 0.000000000000D+00
    0.200000000000D+01 0.000000000000D+00 0.465661287308D-09 0.500000000000D+02
    0.453630000000D+06 0.000000000000D+00 0.000000000000D+00 0.000000000000D+00
 3 18  6  8  9 25  0.0 0.853535602800D-04 0.681765754962D-11 0.000000000000D+00
    0.170000000000D+02-0.552343750000D+02 0.470180299182D-08 0.101830309024D+01
   -0.286940485239D-05 0.141536718002D-02 0.713206827640D-05 0.515374245770D+04
    0.465900000000D+06-0.558793544769D-08-0.183275102724D+01-0.279396772385D-08
    0.960734681770D+00 0.242496093750D+03 0.438306119701D+00-0.815814046104D-08
   -0.113219001740D-09 0.100000000000D+01 0.200400000000D+04 0.000000000000D+00
    0.320000000000D+02 0.000000000000D+00 0.232830643654D-08 0.170000000000D+02
    0.466158000000D+06 0.400000000000D+01 0.000000000000D+00 0.000000000000D+00
 6 18  6  8  9 25  0.0 0.397693918785D-03-0.294164692605D-11 0.000000000000D+00
    0.170000000000D+02-0.875000000000D+00 0.430642938007D-08 0.205283204127D+01
    0.186264514923D-07 0.114390248200D-02 0.576488673687D-05 0.515363656800D+04
    0.465900000000D+06 0.558793544769D-08-0.288378156035D+01 0.167638063431D-07
    0.971384786098D+00 0.273195312500D+03-0.105999710619D+01-0.804652866910D-08
    0.300369654459D-09 0.100000000000D+01 0.200400000000D+04 0.000000000000D+00
    0.256000000000D+03 0.000000000000D+00 0.465661287308D-08 0.170000000000D+02
    0.465678000000D+06 0.400000000000D+01 0.000000000000D+00 0.000000000000D+00
10 18  6  8  9 25  0.0 0.187668803846D-03 0.966338120634D-12 0.000000000000D+00
    0.170000000000D+02-0.654726562500D+02 0.471162482952D-08-0.200511317495D+00
   -0.338070094585D-05 0.357073388295D-02 0.762753188610D-05 0.515366363979D+04
    0.465900000000D+06 0.670552253723D-07-0.183620043227D+01 0.251457095146D-07
    0.960826269951D+00 0.232113281250D+03-0.274523000370D+01-0.820546386082D-08
   -0.121612208494D-09 0.100000000000D+01 0.200400000000D+04 0.000000000000D+00
    0.256000000000D+03 0.000000000000D+00 0.186264514923D-08 0.170000000000D+02
    0.460812000000D+06 0.400000000000D+01 0.000000000000D+00 0.000000000000D+00
12 18  6  8  9 25  0.0 0.328720605467D-03-0.240163444687D-11 0.000000000000D+00
    0.170000000000D+02-0.208398437500D+02 0.402373903345D-08 0.626570493416D+00
   -0.116229057312D-05 0.719209882664D-02 0.725500285626D-05 0.515357935800D+04
    0.465900000000D+06-0.596046447754D-07 0.137144441284D+01 0.679865479469D-07
    0.986325553081D+00 0.252921875000D+03 0.990207570783D+00-0.799366932444D-08
   -0.499485091273D-09 0.100000000000D+01 0.200400000000D+04 0.000000000000D+00
    0.256000000000D+03 0.000000000000D+00-0.125728547573D-07 0.170000000000D+02
    0.462732000000D+06 0.400000000000D+01 0.000000000000D+00 0.000000000000D+00
17 18  6  8  9 25  0.0-0.903121836018D-04 0.358824081559D-11 0.000000000000D+00
    0.170000000000D+02 0.482031250000D+01 0.371747627638D-08-0.230426682173D+01
    0.235624611378D-06 0.123466398218D-01 0.878330320120D-05 0.515357098244D+04
    0.465900000000D+06 0.160187482834D-06 0.240586757660D+01-0.670552253723D-07
    0.982852715761D+00 0.222468750000D+03-0.177811127471D+01-0.747614776759D-08
    0.105004373854D-09 0.100000000000D+01 0.200400000000D+04 0.000000000000D+00
    0.640000000000D+02 0.000000000000D+00-0.111758708954D-07 0.170000000000D+02
    0.460860000000D+06 0.400000000000D+01 0.000000000000D+00 0.000000000000D+00
27 18  6  8  9 25  0.0 0.366720196325D-03-0.138911104841D-11 0.000000000000D+00
    0.170000000000D+02-0.197695312500D+02 0.380908723520D-08-0.220630096259D+01
   -0.955536961556D-06 0.598824722692D-02 0.995397567749D-05 0.515368905494D+04
    0.465900000000D+06-0.558793544769D-08 0.235173969325D+01-0.474974513054D-07
    0.977539067409D+00 0.197066406250D+03 0.432941719795D+00-0.768651367303D-08
    0.141613041609D-09 0.100000000000D+01 0.200400000000D+04 0.000000000000D+00
    0.128000000000D+03 0.000000000000D+00 0.139698386192D-08 0.170000000000D+02
    0.461646000000D+06 0.400000000000D+01 0.000000000000D+00 0.000000000000D+00
 1 18  6  8  9 30  0.0-0.544128706679D-04-0.337152528118D-11 0.000000000000D+00
    0.180000000000D+02 0.493750000000D+01 0.436125309227D-08 0.194320461624D+01
    0.198371708393D-06 0.785827147774D-02 0.599678605795D-05 0.515366899816D+04
    0.466200000000D+06-0.160187482834D-06-0.287546024020D+01 0.931322574616D-09
    0.971667475268D+00 0.269171875000D+03 0.636091501479D+00-0.811956742574D-08
    0.330549482999D-09 0.100000000000D+01 0.200400000000D+04 0.000000000000D+00
    0.102400000000D+04 0.000000000000D+00 0.558793544769D-08 0.180000000000D+02
    0.460812000000D+06 0.400000000000D+01 0.000000000000D+00 0.000000000000D+00
 3 18  6  8  9 30  0.0 0.853555393405D-04 0.681765754962D-11 0.000000000000D+00
    0.180000000000D+02-0.552343750000D+02 0.469733852015D-08 0.106205916163D+01
   -0.286940485239D-05 0.141536723822D-02 0.713206827640D-05 0.515374242663D+04
    0.466200000000D+06-0.558793544769D-08-0.183275347324D+01-0.279396772385D-08
    0.960734646660D+00 0.242496093750D+03 0.438305838089D+00-0.815778330330D-08
   -0.113219001740D-09 0.100000000000D+01 0.200400000000D+04 0.000000000000D+00
    0.102400000000D+04 0.000000000000D+00 0.232830643654D-08 0.180000000000D+02
    0.460812000000D+06 0.400000000000D+01 0.000000000000D+00 0.000000000000D+00
 4 18  6  8  9 30  0.0 0.679227232467D-04 0.341415784533D-11 0.000000000000D+00
    0.180000000000D+02-0.397226562500D+02 0.551451541599D-08-0.950634410813D+00
   -0.197254121304D-05 0.984366459306D-02 0.657793134451D-05 0.515370266035D+04
    0.466200000000D+06 0.113621354103D-06 0.133650859712D+01 0.168569386005D-06
    0.978790982962D+00 0.261105468750D+03 0.929523121935D+00-0.812796063250D-08
   -0.491449042254D-09 0.100000000000D+01 0.200400000000D+04 0.000000000000D+00
    0.320000000000D+02 0.000000000000D+00-0.195577740669D-07 0.180000000000D+02
    0.460860000000D+06 0.400000000000D+01 0.000000000000D+00 0.000000000000D+00
